{"type":"Feature","properties":{"name":"Victoria"},"geometry":{"type":"MultiPolygon","coordinates":[[[[145.23464,-38.40951],[145.2152,-38.3831],[145.18399,-38.37457],[145.22196,-38.37778],[145.19294,-38.29654],[145.22303,-38.30645],[145.22566,-38.27241],[145.26174,-38.24241],[145.25478,-38.22305],[145.29831,-38.24848],[145.32485,-38.24214],[145.34708,-38.21356],[145.41092,-38.22804],[145.43839,-38.21439],[145.48899,-38.2334],[145.52214,-38.29893],[145.51534,-38.33779],[145.54515,-38.33952],[145.54894,-38.37167],[145.51541,-38.41546],[145.41639,-38.40698],[145.43382,-38.43485],[145.41772,-38.47136],[145.43449,-38.49361],[145.41918,-38.51318],[145.36341,-38.52096],[145.37202,-38.53628],[145.48369,-38.55599],[145.56063,-38.65139],[145.6067,-38.67877],[145.65688,-38.67691],[145.71387,-38.64553],[145.76555,-38.66674],[145.86953,-38.77614],[145.9212,-38.9096],[146.00629,-38.87791],[145.99791,-38.84639],[146.03361,-38.81318],[146.12686,-38.8336],[146.23391,-38.91866],[146.2695,-38.97295],[146.2673,-38.99118],[146.24897,-38.99601],[146.27433,-38.99638],[146.30472,-39.03935],[146.31671,-39.02883],[146.32313,-39.02747],[146.32456,-39.02811],[146.32602,-39.0275],[146.32859,-39.0278],[146.32802,-39.02816],[146.32736,-39.02818],[146.32599,-39.02763],[146.32526,-39.02819],[146.32407,-39.02835],[146.32315,-39.02772],[146.32201,-39.02883],[146.3196,-39.02847],[146.31404,-39.0318],[146.31695,-39.05224],[146.35228,-39.05864],[146.34067,-39.07694],[146.32075,-39.08044],[146.34582,-39.12537],[146.37382,-39.13673],[146.38783,-39.12508],[146.42482,-39.13098],[146.44161,-39.08974],[146.4253,-39.08354],[146.43084,-39.06577],[146.45529,-39.0541],[146.48344,-39.06069],[146.46044,-39.0369],[146.4754,-39.02565],[146.43176,-39.01096],[146.45099,-38.94784],[146.4893,-38.91045],[146.46786,-38.87104],[146.47864,-38.79177],[146.43797,-38.77891],[146.41487,-38.85207],[146.35258,-38.86821],[146.3231,-38.90357],[146.29262,-38.90454],[146.29273,-38.87645],[146.27028,-38.86013],[146.27282,-38.80603],[146.23305,-38.80903],[146.18557,-38.74336],[146.1926,-38.72872],[146.2107,-38.73793],[146.19205,-38.72623],[146.229,-38.70166],[146.21206,-38.69284],[146.24395,-38.68282],[146.25263,-38.6975],[146.26057,-38.68731],[146.33885,-38.69065],[146.33183,-38.68106],[146.35071,-38.67291],[146.38099,-38.68563],[146.38706,-38.72074],[146.41121,-38.7212],[146.43721,-38.69442],[146.49297,-38.69675],[146.49467,-38.67973],[146.51472,-38.69423],[146.54121,-38.68536],[146.55121,-38.70378],[146.55277,-38.68928],[146.56675,-38.69111],[146.54652,-38.68451],[146.57201,-38.67769],[146.57683,-38.69213],[146.58043,-38.67945],[146.5827,-38.69846],[146.59368,-38.68475],[146.58443,-38.67707],[146.64103,-38.66889],[146.65313,-38.64297],[146.67054,-38.66213],[146.65756,-38.67148],[146.69771,-38.67534],[146.71292,-38.64776],[146.74218,-38.66491],[146.78591,-38.64623],[146.78471,-38.62278],[146.7958,-38.62299],[146.79944,-38.62864],[146.7981,-38.6202],[146.82536,-38.60971],[146.84204,-38.61636],[146.84401,-38.60482],[146.89868,-38.6122],[146.92552,-38.59421],[146.88314,-38.63462],[147.47631,-38.15174],[147.78822,-37.95531],[147.95199,-37.89405],[148.28962,-37.81098],[148.69103,-37.80143],[148.72779,-37.81542],[148.74919,-37.79702],[148.80874,-37.7864],[149.12276,-37.77729],[149.24672,-37.78046],[149.2755,-37.80376],[149.34038,-37.7769],[149.48496,-37.77543],[149.52551,-37.73727],[149.59584,-37.72656],[149.6166,-37.7006],[149.67733,-37.68507],[149.73875,-37.58502],[149.77525,-37.55783],[149.90661,-37.54285],[149.9762,-37.50515],[148.19495,-36.79624],[148.10889,-36.80085],[148.09799,-36.78715],[148.13071,-36.73467],[148.17025,-36.71279],[148.21118,-36.65051],[148.21955,-36.61955],[148.20279,-36.6119],[148.21757,-36.59823],[148.19014,-36.57661],[148.16072,-36.57976],[148.15049,-36.55832],[148.13342,-36.56691],[148.12467,-36.4647],[148.08761,-36.45188],[148.08029,-36.42209],[148.03759,-36.39021],[148.05895,-36.32003],[148.03502,-36.31057],[148.0261,-36.22303],[148.04063,-36.20694],[148.02182,-36.17645],[148.03773,-36.14078],[148.00529,-36.14057],[147.99066,-36.12126],[147.99922,-36.09864],[147.98025,-36.08647],[147.9997,-36.04619],[147.92398,-36.04248],[147.91235,-35.99519],[147.88289,-36.00179],[147.80616,-35.96504],[147.77686,-35.9686],[147.70842,-35.92853],[147.64678,-35.946],[147.60144,-35.97911],[147.54912,-35.96454],[147.54766,-35.97861],[147.58403,-35.98463],[147.55188,-36.00408],[147.49412,-35.94354],[147.46408,-35.94412],[147.45069,-35.96079],[147.40464,-35.94348],[147.31995,-36.06097],[147.28518,-36.03943],[147.2063,-36.05012],[147.16446,-36.03079],[147.14437,-36.03775],[147.12336,-35.99448],[147.09808,-36.01023],[147.09545,-36.0527],[147.06182,-36.06614],[147.05297,-36.10787],[147.03415,-36.11523],[147.00745,-36.08372],[146.9813,-36.09486],[146.95683,-36.07805],[146.94371,-36.11598],[146.92681,-36.09717],[146.90777,-36.11127],[146.90692,-36.08493],[146.88056,-36.08751],[146.87296,-36.07367],[146.82547,-36.0888],[146.80394,-36.05518],[146.74986,-36.06126],[146.75293,-36.0421],[146.73085,-36.04523],[146.73165,-36.02371],[146.68582,-36.04056],[146.6802,-36.02236],[146.656,-36.02624],[146.65087,-36.00772],[146.61431,-35.99647],[146.61253,-35.97285],[146.58397,-35.98385],[146.56295,-35.96769],[146.54959,-35.99244],[146.50259,-35.95822],[146.49973,-35.99086],[146.46741,-35.98423],[146.4546,-35.96223],[146.44331,-35.97623],[146.42168,-35.96582],[146.36869,-36.05085],[146.3389,-36.02638],[146.32908,-36.04313],[146.28303,-36.04147],[146.2829,-36.01104],[146.27504,-36.01243],[146.27286,-36.02662],[146.25719,-36.01204],[146.24299,-36.02877],[146.20475,-36.03915],[146.19925,-36.02744],[146.18598,-36.04206],[146.17311,-36.01928],[146.13125,-36.01931],[146.13477,-36.00253],[146.11872,-36.018],[146.09148,-36.00946],[146.09221,-36.02125],[146.03149,-35.9947],[145.97208,-36.01573],[145.94575,-35.9838],[145.95372,-35.96154],[145.92801,-35.97393],[145.90294,-35.96884],[145.9027,-35.95248],[145.85405,-35.95991],[145.858,-35.97527],[145.82755,-35.97542],[145.81137,-35.99168],[145.77822,-35.96023],[145.71677,-35.95058],[145.72631,-35.9423],[145.69733,-35.93649],[145.69819,-35.92096],[145.67387,-35.92588],[145.67906,-35.91682],[145.62033,-35.88387],[145.62635,-35.86275],[145.60114,-35.87499],[145.59324,-35.84906],[145.558,-35.82822],[145.56284,-35.81344],[145.53877,-35.8218],[145.5354,-35.80197],[145.52166,-35.81864],[145.47213,-35.80922],[145.46253,-35.82686],[145.41988,-35.82816],[145.41063,-35.8486],[145.35541,-35.86705],[145.32446,-35.85067],[145.29655,-35.86055],[145.25836,-35.85063],[145.24618,-35.83031],[145.15346,-35.84303],[145.15918,-35.83106],[145.13664,-35.83426],[145.12769,-35.8207],[145.09193,-35.83594],[145.09,-35.82544],[145.04972,-35.83366],[145.019,-35.85663],[144.99227,-35.85233],[144.96819,-35.86551],[144.97496,-35.88383],[144.94891,-35.93167],[144.95738,-35.96099],[144.93101,-35.96846],[144.92361,-35.98875],[144.96184,-36.0182],[144.98191,-36.0723],[144.9483,-36.08289],[144.93262,-36.06704],[144.86347,-36.0591],[144.84193,-36.10056],[144.8099,-36.10242],[144.80788,-36.12362],[144.79856,-36.11319],[144.77707,-36.12982],[144.74058,-36.10756],[144.72711,-36.1179],[144.71903,-36.08589],[144.68391,-36.09512],[144.68872,-36.06127],[144.65497,-36.07534],[144.6532,-36.05323],[144.63691,-36.04748],[144.61831,-36.05969],[144.62198,-36.07638],[144.61068,-36.0718],[144.61548,-36.03158],[144.58328,-36.03901],[144.56339,-36.00779],[144.51579,-35.99443],[144.51517,-35.96545],[144.50047,-35.97023],[144.50137,-35.95807],[144.49397,-35.96858],[144.46656,-35.93359],[144.44698,-35.93552],[144.41699,-35.91046],[144.42439,-35.90018],[144.40793,-35.904],[144.41139,-35.85899],[144.38144,-35.85241],[144.38412,-35.81955],[144.36481,-35.82092],[144.37686,-35.79297],[144.36234,-35.79582],[144.34912,-35.76713],[144.31866,-35.76656],[144.32784,-35.75263],[144.29528,-35.75437],[144.29607,-35.73708],[144.2645,-35.75139],[144.21349,-35.68666],[144.16236,-35.67151],[144.15264,-35.64266],[144.13149,-35.64075],[144.10502,-35.59077],[144.06229,-35.57676],[144.03922,-35.54924],[144.00965,-35.56329],[143.98987,-35.55465],[143.99674,-35.53593],[143.97467,-35.53254],[143.97011,-35.50006],[143.93336,-35.5066],[143.85879,-35.47996],[143.85544,-35.46183],[143.81303,-35.44625],[143.81802,-35.43753],[143.76286,-35.42305],[143.76883,-35.4018],[143.75101,-35.38782],[143.70918,-35.39253],[143.68423,-35.36817],[143.64235,-35.40102],[143.63303,-35.38345],[143.62042,-35.38767],[143.59845,-35.3521],[143.56208,-35.33723],[143.59087,-35.28165],[143.56372,-35.24353],[143.58099,-35.22002],[143.57083,-35.20689],[143.47149,-35.21928],[143.44949,-35.1891],[143.39106,-35.18886],[143.39065,-35.14509],[143.34086,-35.0957],[143.35084,-35.06469],[143.32209,-35.03671],[143.33599,-35.03736],[143.33812,-35.01088],[143.31865,-34.99296],[143.31723,-34.95335],[143.3427,-34.93286],[143.3213,-34.88872],[143.35257,-34.85822],[143.34788,-34.79162],[143.30885,-34.77993],[143.27674,-34.79225],[143.27301,-34.7764],[143.25214,-34.77279],[143.27402,-34.75267],[143.26529,-34.74855],[143.24893,-34.75784],[143.24067,-34.74545],[143.2244,-34.75871],[143.21885,-34.72946],[143.20092,-34.73343],[143.18099,-34.70947],[143.16537,-34.71812],[143.1617,-34.6979],[143.14741,-34.71474],[143.11803,-34.70298],[143.12761,-34.69273],[143.10707,-34.70154],[143.11235,-34.68089],[143.09283,-34.70126],[143.07077,-34.67837],[143.05483,-34.69884],[143.04043,-34.68588],[143.03947,-34.7026],[143.03251,-34.68291],[143.01019,-34.69364],[143.01729,-34.67365],[142.98932,-34.66257],[142.97271,-34.69519],[142.95927,-34.66497],[142.92385,-34.64784],[142.88682,-34.67979],[142.86056,-34.66515],[142.86835,-34.62744],[142.84069,-34.62574],[142.82378,-34.60048],[142.81827,-34.61243],[142.80335,-34.60708],[142.81064,-34.58929],[142.7869,-34.58934],[142.81011,-34.56084],[142.79143,-34.54638],[142.77021,-34.56795],[142.78376,-34.57906],[142.7483,-34.57675],[142.75918,-34.60012],[142.69999,-34.59937],[142.68951,-34.61828],[142.7088,-34.62265],[142.68921,-34.65253],[142.71076,-34.67576],[142.67891,-34.68083],[142.69941,-34.72446],[142.67865,-34.72233],[142.67896,-34.73919],[142.66142,-34.72169],[142.63734,-34.73503],[142.61832,-34.72874],[142.6205,-34.75711],[142.64637,-34.7633],[142.63933,-34.78026],[142.61683,-34.78549],[142.56718,-34.76692],[142.55675,-34.77536],[142.53357,-34.75305],[142.52422,-34.75937],[142.49957,-34.7391],[142.51896,-34.70293],[142.49975,-34.70312],[142.51368,-34.6922],[142.49743,-34.67428],[142.51586,-34.66367],[142.47559,-34.6726],[142.48365,-34.63642],[142.45233,-34.63348],[142.46826,-34.61292],[142.46797,-34.56428],[142.44885,-34.55947],[142.45163,-34.58425],[142.42607,-34.56234],[142.4077,-34.56796],[142.40556,-34.5415],[142.39022,-34.54911],[142.3677,-34.53043],[142.39995,-34.52228],[142.37495,-34.51527],[142.39469,-34.49347],[142.35958,-34.49877],[142.38417,-34.47808],[142.37927,-34.46669],[142.35334,-34.46957],[142.36794,-34.4354],[142.35098,-34.39662],[142.37393,-34.38814],[142.37828,-34.36474],[142.36354,-34.36215],[142.38976,-34.36279],[142.39657,-34.33774],[142.28388,-34.32655],[142.29889,-34.30569],[142.28614,-34.29652],[142.2359,-34.30696],[142.24957,-34.26691],[142.23243,-34.25604],[142.24419,-34.21153],[142.22797,-34.18945],[142.18391,-34.17569],[142.16615,-34.18291],[142.16664,-34.15312],[142.14871,-34.14874],[142.12012,-34.15688],[142.11962,-34.1749],[142.08278,-34.17353],[142.06535,-34.1506],[142.07564,-34.13141],[142.02959,-34.12613],[142.03778,-34.0998],[142.01332,-34.10537],[142.02225,-34.12522],[141.97766,-34.11269],[141.97044,-34.13609],[141.94501,-34.11946],[141.93406,-34.13824],[141.9226,-34.11456],[141.90351,-34.11114],[141.88475,-34.11497],[141.87663,-34.1374],[141.77689,-34.11686],[141.7779,-34.10176],[141.75695,-34.11208],[141.76184,-34.09752],[141.73147,-34.09094],[141.71902,-34.11488],[141.70829,-34.09634],[141.67746,-34.10121],[141.63266,-34.12147],[141.62799,-34.1454],[141.61182,-34.13901],[141.61854,-34.15627],[141.58391,-34.15195],[141.60297,-34.16224],[141.58939,-34.17734],[141.60329,-34.19122],[141.54774,-34.20083],[141.53355,-34.19142],[141.53387,-34.21068],[141.51008,-34.21647],[141.51875,-34.1809],[141.49497,-34.1546],[141.44455,-34.168],[141.43391,-34.14589],[141.40741,-34.14639],[141.40825,-34.12784],[141.38812,-34.13472],[141.35899,-34.11071],[141.32494,-34.13877],[141.31746,-34.1124],[141.28371,-34.10386],[141.25957,-34.07812],[141.24255,-34.08733],[141.24181,-34.0613],[141.22848,-34.07364],[141.20591,-34.06171],[141.18624,-34.09196],[141.17468,-34.07332],[141.15368,-34.0821],[141.15312,-34.05451],[141.12034,-34.06485],[141.09424,-34.05064],[141.08922,-34.07668],[141.06561,-34.05005],[141.04247,-34.06109],[141.03434,-34.03572],[141.02327,-34.05969],[141.00188,-34.03909],[141.01232,-34.02464],[140.99815,-34.01968],[140.98844,-34.03076],[140.96369,-33.98064],[140.9658,-38.05598],[141.15014,-38.12683],[141.29529,-38.22063],[141.39211,-38.31972],[141.3977,-38.33854],[141.36554,-38.3653],[141.37433,-38.38674],[141.41324,-38.39627],[141.40707,-38.36906],[141.46103,-38.36208],[141.51924,-38.39002],[141.54279,-38.43295],[141.57308,-38.38969],[141.62642,-38.40633],[141.62797,-38.39345],[141.65026,-38.39303],[141.60163,-38.31317],[141.67953,-38.26785],[141.74202,-38.2531],[141.92951,-38.2782],[142.14581,-38.39147],[142.24491,-38.39645],[142.26153,-38.36457],[142.37252,-38.34947],[142.47166,-38.4043],[142.49219,-38.39386],[142.56333,-38.42199],[142.85764,-38.60528],[142.93703,-38.62732],[143.01538,-38.62449],[143.08084,-38.651],[143.23297,-38.76642],[143.2597,-38.77295],[143.30218,-38.75017],[143.3566,-38.75394],[143.42771,-38.78277],[143.51135,-38.85768],[143.55471,-38.85548],[143.61604,-38.7955],[143.66175,-38.78264],[143.68538,-38.73535],[143.84042,-38.69098],[143.92307,-38.59309],[143.97435,-38.56522],[143.97973,-38.53226],[144.03517,-38.47665],[144.10476,-38.46924],[144.13382,-38.43452],[144.18402,-38.42869],[144.20003,-38.40666],[144.25402,-38.39546],[144.33229,-38.32324],[144.42897,-38.28151],[144.4999,-38.29048],[144.50844,-38.27478],[144.53872,-38.27162],[144.61389,-38.29224],[144.62018,-38.2759],[144.67225,-38.26525],[144.66677,-38.26223],[144.63299,-38.26978],[144.62318,-38.25145],[144.68659,-38.19745],[144.7034,-38.20151],[144.69575,-38.21975],[144.70092,-38.2196],[144.70638,-38.21021],[144.72021,-38.14662],[144.69223,-38.11995],[144.63139,-38.10737],[144.55798,-38.15484],[144.47814,-38.16447],[144.4256,-38.1238],[144.4166,-38.15532],[144.36517,-38.14482],[144.36161,-38.10512],[144.39795,-38.0738],[144.44485,-38.09179],[144.46402,-38.0767],[144.50692,-38.09146],[144.5157,-38.04559],[144.55867,-38.03753],[144.59158,-38.00443],[144.65165,-38.00162],[144.73559,-37.94312],[144.79347,-37.92703],[144.81957,-37.87251],[144.86859,-37.8587],[144.90805,-37.87069],[144.89917,-37.84038],[144.96894,-37.85931],[145.01795,-37.98179],[145.03792,-37.99643],[145.06166,-37.99053],[145.09583,-38.02136],[145.12562,-38.07164],[145.11776,-38.14387],[145.03243,-38.21266],[145.02562,-38.25334],[144.98284,-38.2964],[144.98839,-38.3167],[144.92318,-38.34924],[144.81469,-38.36854],[144.76674,-38.35637],[144.73415,-38.32247],[144.65173,-38.30383],[144.83858,-38.43031],[144.88666,-38.4772],[144.88829,-38.49936],[145.01101,-38.47965],[145.03127,-38.48707],[145.0503,-38.42992],[145.12985,-38.39046],[145.23464,-38.40951]]],[[[145.27039,-38.4091],[145.28714,-38.39564],[145.35256,-38.42004],[145.38595,-38.40671],[145.40609,-38.37275],[145.50342,-38.35328],[145.45238,-38.30684],[145.352,-38.31125],[145.29727,-38.282],[145.27039,-38.4091]]],[[[145.16088,-38.47186],[145.14713,-38.50318],[145.11627,-38.5185],[145.17067,-38.50956],[145.22121,-38.52994],[145.24005,-38.50681],[145.27114,-38.50485],[145.36093,-38.56606],[145.34094,-38.53497],[145.36291,-38.51207],[145.34999,-38.50695],[145.34019,-38.50977],[145.33282,-38.50478],[145.29782,-38.50699],[145.30558,-38.48542],[145.29075,-38.48048],[145.31042,-38.46061],[145.27326,-38.46028],[145.27495,-38.45825],[145.27876,-38.45769],[145.27913,-38.45436],[145.3025,-38.45384],[145.2986,-38.45144],[145.20657,-38.44973],[145.16088,-38.47186]]],[[[146.50092,-38.76303],[146.54165,-38.72773],[146.50818,-38.73722],[146.50959,-38.71852],[146.46461,-38.73911],[146.49476,-38.77482],[146.54535,-38.79088],[146.59764,-38.75947],[146.61098,-38.75621],[146.62588,-38.75929],[146.65601,-38.75537],[146.66774,-38.7478],[146.62256,-38.75822],[146.58041,-38.73499],[146.50092,-38.76303]]],[[[146.87979,-38.61517],[146.82528,-38.62073],[146.81913,-38.61318],[146.80098,-38.63298],[146.79106,-38.63288],[146.81988,-38.65062],[146.87979,-38.61517]]],[[[146.62699,-38.72375],[146.67762,-38.70826],[146.61844,-38.6975],[146.60172,-38.70094],[146.58572,-38.71322],[146.62699,-38.72375]]],[[[146.4461,-38.71225],[146.43878,-38.72785],[146.50193,-38.71624],[146.47837,-38.71185],[146.4461,-38.71225]]]]}}
